{"type": "FeatureCollection", "meta": {"descripcion": "Zonas NSE normalizadas.", "clasificacion": "AMAI/INEGI -> ses_index 0-1", "generado_por": "etl/load_nse.py"}, "features": [{"type": "Feature", "properties": {"name": "San Pedro Garza García", "metro": "Monterrey", "nse": "A/B", "ses_index": 0.92}, "geometry": {"type": "Polygon", "coordinates": [[[-100.44, 25.6], [-100.36, 25.6], [-100.36, 25.67], [-100.44, 25.67], [-100.44, 25.6]]]}}, {"type": "Feature", "properties": {"name": "Cumbres", "metro": "Monterrey", "nse": "C+", "ses_index": 0.7}, "geometry": {"type": "Polygon", "coordinates": [[[-100.42, 25.7], [-100.34, 25.7], [-100.34, 25.77], [-100.42, 25.77], [-100.42, 25.7]]]}}, {"type": "Feature", "properties": {"name": "Monterrey Centro", "metro": "Monterrey", "nse": "C", "ses_index": 0.5}, "geometry": {"type": "Polygon", "coordinates": [[[-100.33, 25.66], [-100.29, 25.66], [-100.29, 25.7], [-100.33, 25.7], [-100.33, 25.66]]]}}, {"type": "Feature", "properties": {"name": "San Nicolás / Guadalupe", "metro": "Monterrey", "nse": "C", "ses_index": 0.52}, "geometry": {"type": "Polygon", "coordinates": [[[-100.3, 25.65], [-100.22, 25.65], [-100.22, 25.73], [-100.3, 25.73], [-100.3, 25.65]]]}}, {"type": "Feature", "properties": {"name": "Juárez / Periferia SE", "metro": "Monterrey", "nse": "D+", "ses_index": 0.34}, "geometry": {"type": "Polygon", "coordinates": [[[-100.12, 25.63], [-100.03, 25.63], [-100.03, 25.7], [-100.12, 25.7], [-100.12, 25.63]]]}}, {"type": "Feature", "properties": {"name": "Zapopan NW (Andares / Puerta de Hierro)", "metro": "Guadalajara", "nse": "A/B", "ses_index": 0.9}, "geometry": {"type": "Polygon", "coordinates": [[[-103.45, 20.69], [-103.38, 20.69], [-103.38, 20.75], [-103.45, 20.75], [-103.45, 20.69]]]}}, {"type": "Feature", "properties": {"name": "Providencia / Chapalita", "metro": "Guadalajara", "nse": "C+", "ses_index": 0.71}, "geometry": {"type": "Polygon", "coordinates": [[[-103.4, 20.68], [-103.36, 20.68], [-103.36, 20.72], [-103.4, 20.72], [-103.4, 20.68]]]}}, {"type": "Feature", "properties": {"name": "Guadalajara Centro", "metro": "Guadalajara", "nse": "C", "ses_index": 0.5}, "geometry": {"type": "Polygon", "coordinates": [[[-103.36, 20.66], [-103.32, 20.66], [-103.32, 20.7], [-103.36, 20.7], [-103.36, 20.66]]]}}, {"type": "Feature", "properties": {"name": "Tlaquepaque / Tonalá", "metro": "Guadalajara", "nse": "D+", "ses_index": 0.33}, "geometry": {"type": "Polygon", "coordinates": [[[-103.32, 20.58], [-103.24, 20.58], [-103.24, 20.64], [-103.32, 20.64], [-103.32, 20.58]]]}}, {"type": "Feature", "properties": {"name": "Sur / Punto Sur (Tlajomulco)", "metro": "Guadalajara", "nse": "C+", "ses_index": 0.66}, "geometry": {"type": "Polygon", "coordinates": [[[-103.46, 20.5], [-103.4, 20.5], [-103.4, 20.56], [-103.46, 20.56], [-103.46, 20.5]]]}}, {"type": "Feature", "properties": {"name": "Polanco / Lomas", "metro": "CDMX", "nse": "A/B", "ses_index": 0.93}, "geometry": {"type": "Polygon", "coordinates": [[[-99.22, 19.42], [-99.18, 19.42], [-99.18, 19.45], [-99.22, 19.45], [-99.22, 19.42]]]}}, {"type": "Feature", "properties": {"name": "Santa Fe", "metro": "CDMX", "nse": "A/B", "ses_index": 0.88}, "geometry": {"type": "Polygon", "coordinates": [[[-99.28, 19.35], [-99.24, 19.35], [-99.24, 19.38], [-99.28, 19.38], [-99.28, 19.35]]]}}, {"type": "Feature", "properties": {"name": "Benito Juárez / Del Valle", "metro": "CDMX", "nse": "C+", "ses_index": 0.72}, "geometry": {"type": "Polygon", "coordinates": [[[-99.18, 19.37], [-99.14, 19.37], [-99.14, 19.4], [-99.18, 19.4], [-99.18, 19.37]]]}}, {"type": "Feature", "properties": {"name": "Centro Histórico", "metro": "CDMX", "nse": "C", "ses_index": 0.48}, "geometry": {"type": "Polygon", "coordinates": [[[-99.14, 19.42], [-99.11, 19.42], [-99.11, 19.45], [-99.14, 19.45], [-99.14, 19.42]]]}}, {"type": "Feature", "properties": {"name": "Iztapalapa", "metro": "CDMX", "nse": "D/E", "ses_index": 0.24}, "geometry": {"type": "Polygon", "coordinates": [[[-99.08, 19.34], [-99.01, 19.34], [-99.01, 19.4], [-99.08, 19.4], [-99.08, 19.34]]]}}, {"type": "Feature", "properties": {"name": "Norte alto (Altabrisa / Temozón / Montebello / Cabo Norte)", "metro": "Mérida", "nse": "A/B", "ses_index": 0.9}, "geometry": {"type": "Polygon", "coordinates": [[[-89.62, 21.01], [-89.52, 21.01], [-89.52, 21.09], [-89.62, 21.09], [-89.62, 21.01]]]}}, {"type": "Feature", "properties": {"name": "Norponiente (Montecristo / Colonia México)", "metro": "Mérida", "nse": "A/B", "ses_index": 0.85}, "geometry": {"type": "Polygon", "coordinates": [[[-89.66, 20.99], [-89.625, 20.99], [-89.625, 21.02], [-89.66, 21.02], [-89.66, 20.99]]]}}, {"type": "Feature", "properties": {"name": "García Ginerés / Itzimná", "metro": "Mérida", "nse": "C+", "ses_index": 0.7}, "geometry": {"type": "Polygon", "coordinates": [[[-89.645, 20.975], [-89.605, 20.975], [-89.605, 20.998], [-89.645, 20.998], [-89.645, 20.975]]]}}, {"type": "Feature", "properties": {"name": "Centro histórico", "metro": "Mérida", "nse": "C", "ses_index": 0.48}, "geometry": {"type": "Polygon", "coordinates": [[[-89.635, 20.955], [-89.612, 20.955], [-89.612, 20.975], [-89.635, 20.975], [-89.635, 20.955]]]}}, {"type": "Feature", "properties": {"name": "Ciudad Caucel (poniente)", "metro": "Mérida", "nse": "C", "ses_index": 0.52}, "geometry": {"type": "Polygon", "coordinates": [[[-89.73, 20.98], [-89.67, 20.98], [-89.67, 21.01], [-89.73, 21.01], [-89.73, 20.98]]]}}, {"type": "Feature", "properties": {"name": "Sur (San José Tecoh / Sur)", "metro": "Mérida", "nse": "D+", "ses_index": 0.32}, "geometry": {"type": "Polygon", "coordinates": [[[-89.66, 20.9], [-89.58, 20.9], [-89.58, 20.95], [-89.66, 20.95], [-89.66, 20.9]]]}}, {"type": "Feature", "properties": {"name": "Sur alto (Altozano / Tres Marías / Country)", "metro": "Morelia", "nse": "A/B", "ses_index": 0.88}, "geometry": {"type": "Polygon", "coordinates": [[[-101.19, 19.61], [-101.12, 19.61], [-101.12, 19.67], [-101.19, 19.67], [-101.19, 19.61]]]}}, {"type": "Feature", "properties": {"name": "Nueva Chapultepec / Camelinas", "metro": "Morelia", "nse": "C+", "ses_index": 0.7}, "geometry": {"type": "Polygon", "coordinates": [[[-101.21, 19.67], [-101.15, 19.67], [-101.15, 19.7], [-101.21, 19.7], [-101.21, 19.67]]]}}, {"type": "Feature", "properties": {"name": "Centro histórico", "metro": "Morelia", "nse": "C", "ses_index": 0.5}, "geometry": {"type": "Polygon", "coordinates": [[[-101.205, 19.698], [-101.18, 19.698], [-101.18, 19.715], [-101.205, 19.715], [-101.205, 19.698]]]}}, {"type": "Feature", "properties": {"name": "Norte / Oriente (periferia)", "metro": "Morelia", "nse": "D+", "ses_index": 0.33}, "geometry": {"type": "Polygon", "coordinates": [[[-101.22, 19.715], [-101.1, 19.715], [-101.1, 19.78], [-101.22, 19.78], [-101.22, 19.715]]]}}, {"type": "Feature", "properties": {"name": "Poniente (Villas del Pedregal)", "metro": "Morelia", "nse": "D+", "ses_index": 0.3}, "geometry": {"type": "Polygon", "coordinates": [[[-101.3, 19.66], [-101.23, 19.66], [-101.23, 19.72], [-101.3, 19.72], [-101.3, 19.66]]]}}, {"type": "Feature", "properties": {"name": "Centro histórico (expat / patrimonio)", "metro": "San Miguel de Allende", "nse": "A/B", "ses_index": 0.85}, "geometry": {"type": "Polygon", "coordinates": [[[-100.752, 20.908], [-100.738, 20.908], [-100.738, 20.922], [-100.752, 20.922], [-100.752, 20.908]]]}}, {"type": "Feature", "properties": {"name": "Fraccionamientos NE (Los Frailes / Balcones / Atascadero)", "metro": "San Miguel de Allende", "nse": "A/B", "ses_index": 0.8}, "geometry": {"type": "Polygon", "coordinates": [[[-100.745, 20.915], [-100.715, 20.915], [-100.715, 20.94], [-100.745, 20.94], [-100.745, 20.915]]]}}, {"type": "Feature", "properties": {"name": "Colonias populares (San Rafael / Guadalupe)", "metro": "San Miguel de Allende", "nse": "C", "ses_index": 0.48}, "geometry": {"type": "Polygon", "coordinates": [[[-100.762, 20.895], [-100.748, 20.895], [-100.748, 20.912], [-100.762, 20.912], [-100.762, 20.895]]]}}, {"type": "Feature", "properties": {"name": "Sur / salida a Querétaro", "metro": "San Miguel de Allende", "nse": "D+", "ses_index": 0.35}, "geometry": {"type": "Polygon", "coordinates": [[[-100.76, 20.875], [-100.73, 20.875], [-100.73, 20.9], [-100.76, 20.9], [-100.76, 20.875]]]}}]}